satname,norad_id,inclination_deg,eccentricity,mean_motion_rev_per_day,perigee_km,apogee_km,l1,l2
STARLINK-1496,45780,53.0554,0.0001168,15.36908506,454.45943408159746,456.0557150542163,1 45780U 20038BC  26004.62081086  .00090177  00000+0  24439-2 0  9997,2 45780  53.0554 121.7086 0001168  61.1502 298.9617 15.36908506307122
STARLINK-1497,45781,53.0318,0.0005882,15.78411765,330.9914677509505,338.88873165103905,1 45781U 20038BD  26004.83335648  .00239001  00000+0  13197-2 0  9997,2 45781  53.0318  41.3398 0005882  31.8163 291.7942 15.78411765  5846
STARLINK-1510,45784,53.0128,0.000254,16.26764864,199.57711691189525,202.91944463452728,1 45784U 20038BG  26004.85290816  .03858606  12012-4  11097-2 0  9998,2 45784  53.0128   6.1767 0002540  55.1040 305.0239 16.26764864308779
STARLINK-1513,45786,53.0545,9.18e-05,15.06393086,546.5969994906227,547.8684973764348,1 45786U 20038BJ  26004.62397093  .00000444  00000+0  48701-4 0  9999,2 45786  53.0545 124.2195 0000918  63.5532 296.5551 15.06393086307105
STARLINK-1522,46027,53.0549,0.0001426,15.06387966,546.2608806967601,548.2360006244362,1 46027U 20055A   26004.40559328  .00002717  00000+0  20129-3 0  9992,2 46027  53.0549  55.1996 0001426 105.9458 254.1688 15.06387966299192
STARLINK-1523,46028,53.0551,0.0001479,15.06384936,546.2334614332385,548.2819931935783,1 46028U 20055B   26004.42033514 -.00002574  00000+0 -15403-3 0  9991,2 46028  53.0551  55.1380 0001479  98.4139 261.7018 15.06384936299211
STARLINK-1526,46029,53.0571,0.0001627,15.06380932,546.1432355096658,548.3967629472136,1 46029U 20055C   26004.41295203 -.00004660  00000+0 -29430-3 0  9999,2 46029  53.0571  55.1660 0001627 121.3829 238.7319 15.06380932299201
STARLINK-1555,46032,53.0539,0.0001204,15.06380826,546.4365050682236,548.1041431518688,1 46032U 20055F   26004.59725602  .00003764  00000+0  27157-3 0  9999,2 46032  53.0539  54.3395 0001204  81.9639 278.1487 15.06380826299235
STARLINK-1556,46033,53.0559,0.0001768,15.06375818,546.061258548265,548.5100880055361,1 46033U 20055G   26004.84421933  .00004010  00000+0  28812-3 0  9992,2 46033  53.0559  53.2337 0001768  83.5275 276.5915 15.06375818299245
STARLINK-1557,46034,53.0542,0.000129,15.0639575,546.3312119625034,548.1179552510739,1 46034U 20055H   26004.64885270 -.00000399  00000+0 -79028-5 0  9994,2 46034  53.0542  54.1079 0001290  88.4956 271.6181 15.06395750299216
STARLINK-1558,46035,53.0546,0.0001606,15.06381037,546.1574570994007,548.3818977241863,1 46035U 20055J   26004.39084921 -.00000705  00000+0 -28462-4 0  9997,2 46035  53.0546  55.2691 0001606  92.4561 267.6612 15.06381037299207
STARLINK-1560,46036,53.0538,0.0001565,15.06383538,546.178187111399,548.3458370021726,1 46036U 20055K   26004.84053036  .00000502  00000+0  52612-4 0  9998,2 46036  53.0538  53.2505 0001565  98.0009 262.1158 15.06383538299274
STARLINK-1567,46038,53.0535,0.0001302,15.06383494,546.3604599439805,548.1638338818366,1 46038U 20055M   26004.45350894  .00000557  00000+0  56273-4 0  9996,2 46038  53.0535  54.9866 0001302  92.6600 267.4538 15.06383494299201
STARLINK-1569,46039,53.0547,0.0001714,15.06402881,546.0157248728929,548.3897313316866,1 46039U 20055N   26004.32817801  .00002345  00000+0  17629-3 0  9997,2 46039  53.0547  55.5496 0001714  87.5924 272.5261 15.06402881299189
STARLINK-1582,46043,53.0551,0.0001251,15.06396377,546.3562994400163,548.0890244274324,1 46043U 20055S   26004.40186942 -.00014738  00000+0 -97264-3 0  9990,2 46043  53.0551  55.2169 0001251  51.2260 308.8840 15.06396377299199
STARLINK-1591,46045,53.0555,0.0001355,15.06384748,546.319912452369,548.1966945796221,1 46045U 20055U   26004.42770801  .00000407  00000+0  46218-4 0  9997,2 46045  53.0555  55.1021 0001355  84.0514 276.0629 15.06384748299181
STARLINK-1524,46047,53.0546,0.000154,15.06390231,546.1749903892924,548.3080069668849,1 46047U 20055W   26004.38071584  .00004054  00000+0  29100-3 0  9998,2 46047  53.0546  45.3112 0001540 103.8642 256.2519 15.06390231299332
STARLINK-1527,46048,53.0553,0.0001422,15.06383097,546.2785717515017,548.2481556149323,1 46048U 20055X   26004.37702371  .00000337  00000+0  41506-4 0  9998,2 46048  53.0553  45.3286 0001422  92.2922 267.8230 15.06383097299312
STARLINK-1540,46051,53.0555,0.000157,15.06384342,546.1722606107833,548.346835126813,1 46051U 20055AA  26004.47654911  .00000013  00000+0  19766-4 0  9993,2 46051  53.0555  44.8814 0001570  92.9988 267.1181 15.06384342299369
STARLINK-1541,46052,53.0556,0.0001306,15.06386841,546.3474328827615,548.1563444604826,1 46052U 20055AB  26004.32910506 -.00001294  00000+0 -68004-4 0  9996,2 46052  53.0556  45.5427 0001306  99.5464 260.5672 15.06386841299300
STARLINK-1543,46053,53.055,0.0001434,15.06385335,546.2634029872306,548.2496058442966,1 46053U 20055AC  26004.39914520  .00001560  00000+0  12362-3 0  9993,2 46053  53.0550  45.2296 0001434  83.6380 276.4772 15.06385335299347
STARLINK-1548,46054,53.0548,0.0001456,15.06385316,546.2482253462513,548.264899951695,1 46054U 20055AD  26004.53920133 -.00003913  00000+0 -24405-3 0  9994,2 46054  53.0548  44.6011 0001456  94.9075 265.2080 15.06385316299362
STARLINK-1554,46055,53.055,0.0001945,15.06375236,545.940462014476,548.6344521282781,1 46055U 20055AE  26004.39177932 -.00000873  00000+0 -39743-4 0  9994,2 46055  53.0550  45.2631 0001945  88.7555 271.3657 15.06375236299344
STARLINK-1564,46058,53.0549,0.0001474,15.06395318,546.2051091385274,548.2467061236966,1 46058U 20055AH  26004.60192798  .00003693  00000+0  26673-3 0  9996,2 46058  53.0549  44.7811 0001474  88.3427 271.7731 15.06395318299362
STARLINK-1570,46059,53.0548,0.0001297,15.06391795,546.3384842261194,548.1349261652476,1 46059U 20055AJ  26004.83039170  .00000048  00000+0  22149-4 0  9992,2 46059  53.0548  43.2965 0001297  93.5418 266.5720 15.06391795299362
STARLINK-1572,46060,53.0542,0.0001361,15.0639529,546.2834515441173,548.1685353509329,1 46060U 20055AK  26004.42861694  .00000685  00000+0  64892-4 0  9991,2 46060  53.0542  45.0968 0001361  96.8104 263.3040 15.06395290299310
STARLINK-1573,46061,53.0541,0.0001042,15.06377778,546.5580375883856,548.0012944215814,1 46061U 20055AL  26004.82303007 -.00000784  00000+0 -33810-4 0  9993,2 46061  53.0541  43.3626 0001042  79.1119 280.9987 15.06377778299404
STARLINK-1577,46063,53.0536,0.0001606,15.06386939,546.1393709040976,548.3638057186636,1 46063U 20055AN  26004.45074647 -.00000064  00000+0  14628-4 0  9995,2 46063  53.0536  44.9957 0001606  98.1669 261.9503 15.06386939299346
